{"fetched_at":"2026-03-29T16:36:15Z","count":15609,"tles":[{"name":"STARLINK-30283","line1":"1 57680U 23124T   26087.81737410  .00003400  00000+0  12690-3 0  9999","line2":"2 57680  53.1609 118.1406 0001558  74.7958 285.3215 15.30190815146495","category":"Starlink"}]}